[{"OBJECT_NAME":"STARLINK-5308","OBJECT_ID":"2023-010AH","EPOCH":"2026-03-09T21:24:56.578464","MEAN_MOTION":14.98333974,"ECCENTRICITY":0.00029081,"INCLINATION":70.0013,"RA_OF_ASC_NODE":23.7797,"ARG_OF_PERICENTER":271.4403,"MEAN_ANOMALY":88.6422,"EPHEMERIS_TYPE":0,"CLASSIFICATION_TYPE":"U","NORAD_CAT_ID":55300,"ELEMENT_SET_NO":999,"REV_AT_EPOCH":17330,"BSTAR":-1.8488378e-5,"MEAN_MOTION_DOT":-3.14e-6,"MEAN_MOTION_DDOT":0},{"OBJECT_NAME":"OPS 6432","OBJECT_ID":"1983-056A","EPOCH":"2026-03-09T09:42:49.398624","MEAN_MOTION":13.88372019,"ECCENTRICITY":0.06998718,"INCLINATION":63.303,"RA_OF_ASC_NODE":88.4155,"ARG_OF_PERICENTER":131.4024,"MEAN_ANOMALY":234.9391,"EPHEMERIS_TYPE":0,"CLASSIFICATION_TYPE":"U","NORAD_CAT_ID":14112,"ELEMENT_SET_NO":999,"REV_AT_EPOCH":9444,"BSTAR":0.00034445981,"MEAN_MOTION_DOT":3.135e-5,"MEAN_MOTION_DDOT":0}]
